[{"OBJECT_NAME":"HST","OBJECT_ID":"1990-037B","EPOCH":"2026-03-09T03:50:04.164288","MEAN_MOTION":15.29473555,"ECCENTRICITY":0.00018372,"INCLINATION":28.4717,"RA_OF_ASC_NODE":43.6133,"ARG_OF_PERICENTER":120.9992,"MEAN_ANOMALY":239.0785,"EPHEMERIS_TYPE":0,"CLASSIFICATION_TYPE":"U","NORAD_CAT_ID":20580,"ELEMENT_SET_NO":999,"REV_AT_EPOCH":77323,"BSTAR":0.0003002261,"MEAN_MOTION_DOT":9.063e-5,"MEAN_MOTION_DDOT":0},{"OBJECT_NAME":"STARLINK-35150","OBJECT_ID":"2025-210P","EPOCH":"2026-03-09T22:13:57.615456","MEAN_MOTION":15.30218997,"ECCENTRICITY":0.00011319,"INCLINATION":53.1599,"RA_OF_ASC_NODE":306.2381,"ARG_OF_PERICENTER":113.8482,"MEAN_ANOMALY":246.2638,"EPHEMERIS_TYPE":0,"CLASSIFICATION_TYPE":"U","NORAD_CAT_ID":65635,"ELEMENT_SET_NO":999,"REV_AT_EPOCH":2776,"BSTAR":0.0010334987,"MEAN_MOTION_DOT":0.00030393,"MEAN_MOTION_DDOT":0}]
